{
 "type": "FeatureCollection",
 "name": "paint-group-visit-zones-draft2",
 "notes": "Hand-drawn outlines approved by Tom on 5 Oct 2026. Shapes overlap on purpose: test a point against features in ascending priority and take the first hit. No hit = out_of_area. Shapes run over water; ignore that. Use only to seed the suburb list, never at runtime.",
 "features": [
  {
   "type": "Feature",
   "properties": {
    "status": "zone_1",
    "priority": 1,
    "part": "zone_1"
   },
   "geometry": {
    "type": "Polygon",
    "coordinates": [
     [
      [
       144.915,
       -37.806
      ],
      [
       144.945,
       -37.806
      ],
      [
       144.972,
       -37.807
      ],
      [
       144.992,
       -37.809
      ],
      [
       145.012,
       -37.811
      ],
      [
       145.006,
       -37.8
      ],
      [
       145.004,
       -37.79
      ],
      [
       145.02,
       -37.787
      ],
      [
       145.035,
       -37.784
      ],
      [
       145.06,
       -37.778
      ],
      [
       145.075,
       -37.778
      ],
      [
       145.1,
       -37.787
      ],
      [
       145.115,
       -37.793
      ],
      [
       145.13,
       -37.795
      ],
      [
       145.155,
       -37.797
      ],
      [
       145.18,
       -37.8
      ],
      [
       145.197,
       -37.805
      ],
      [
       145.207,
       -37.806
      ],
      [
       145.208,
       -37.82
      ],
      [
       145.212,
       -37.84
      ],
      [
       145.206,
       -37.857
      ],
      [
       145.2,
       -37.875
      ],
      [
       145.196,
       -37.893
      ],
      [
       145.177,
       -37.893
      ],
      [
       145.177,
       -37.903
      ],
      [
       145.165,
       -37.902
      ],
      [
       145.158,
       -37.938
      ],
      [
       145.166,
       -37.94
      ],
      [
       145.166,
       -37.965
      ],
      [
       145.16,
       -37.985
      ],
      [
       145.152,
       -37.995
      ],
      [
       145.12,
       -37.997
      ],
      [
       145.1,
       -37.996
      ],
      [
       145.092,
       -37.999
      ],
      [
       145.078,
       -38.002
      ],
      [
       145.05,
       -38.02
      ],
      [
       144.99,
       -37.99
      ],
      [
       144.95,
       -37.9
      ],
      [
       144.925,
       -37.855
      ],
      [
       144.912,
       -37.84
      ],
      [
       144.905,
       -37.823
      ],
      [
       144.915,
       -37.806
      ]
     ]
    ]
   }
  },
  {
   "type": "Feature",
   "properties": {
    "status": "zone_2",
    "priority": 2,
    "part": "zone_2"
   },
   "geometry": {
    "type": "Polygon",
    "coordinates": [
     [
      [
       144.912,
       -37.806
      ],
      [
       144.908,
       -37.8
      ],
      [
       144.907,
       -37.79
      ],
      [
       144.905,
       -37.778
      ],
      [
       144.893,
       -37.768
      ],
      [
       144.875,
       -37.763
      ],
      [
       144.873,
       -37.75
      ],
      [
       144.875,
       -37.735
      ],
      [
       144.888,
       -37.728
      ],
      [
       144.905,
       -37.72
      ],
      [
       144.91,
       -37.716
      ],
      [
       144.93,
       -37.717
      ],
      [
       144.955,
       -37.72
      ],
      [
       144.975,
       -37.722
      ],
      [
       144.98,
       -37.705
      ],
      [
       144.99,
       -37.693
      ],
      [
       145.03,
       -37.692
      ],
      [
       145.04,
       -37.7
      ],
      [
       145.048,
       -37.712
      ],
      [
       145.055,
       -37.718
      ],
      [
       145.085,
       -37.717
      ],
      [
       145.095,
       -37.725
      ],
      [
       145.108,
       -37.728
      ],
      [
       145.112,
       -37.737
      ],
      [
       145.13,
       -37.735
      ],
      [
       145.15,
       -37.74
      ],
      [
       145.168,
       -37.733
      ],
      [
       145.18,
       -37.75
      ],
      [
       145.185,
       -37.762
      ],
      [
       145.195,
       -37.775
      ],
      [
       145.205,
       -37.79
      ],
      [
       145.207,
       -37.806
      ],
      [
       145.2,
       -37.82
      ],
      [
       144.92,
       -37.82
      ],
      [
       144.912,
       -37.806
      ]
     ]
    ]
   }
  },
  {
   "type": "Feature",
   "properties": {
    "status": "zone_5",
    "priority": 3,
    "part": "zone_5"
   },
   "geometry": {
    "type": "Polygon",
    "coordinates": [
     [
      [
       144.875,
       -37.763
      ],
      [
       144.866,
       -37.765
      ],
      [
       144.85,
       -37.769
      ],
      [
       144.842,
       -37.768
      ],
      [
       144.84,
       -37.795
      ],
      [
       144.835,
       -37.805
      ],
      [
       144.825,
       -37.825
      ],
      [
       144.82,
       -37.845
      ],
      [
       144.8,
       -37.86
      ],
      [
       144.8,
       -37.9
      ],
      [
       144.93,
       -37.9
      ],
      [
       144.93,
       -37.76
      ],
      [
       144.875,
       -37.763
      ]
     ]
    ]
   }
  },
  {
   "type": "Feature",
   "properties": {
    "status": "zone_3",
    "priority": 4,
    "part": "zone_3"
   },
   "geometry": {
    "type": "Polygon",
    "coordinates": [
     [
      [
       145.15,
       -37.8
      ],
      [
       145.205,
       -37.79
      ],
      [
       145.21,
       -37.778
      ],
      [
       145.235,
       -37.772
      ],
      [
       145.26,
       -37.762
      ],
      [
       145.285,
       -37.757
      ],
      [
       145.29,
       -37.74
      ],
      [
       145.32,
       -37.733
      ],
      [
       145.375,
       -37.735
      ],
      [
       145.4,
       -37.76
      ],
      [
       145.405,
       -37.79
      ],
      [
       145.395,
       -37.82
      ],
      [
       145.39,
       -37.855
      ],
      [
       145.39,
       -37.885
      ],
      [
       145.375,
       -37.91
      ],
      [
       145.37,
       -37.94
      ],
      [
       145.35,
       -37.97
      ],
      [
       145.365,
       -38.0
      ],
      [
       145.375,
       -38.03
      ],
      [
       145.37,
       -38.055
      ],
      [
       145.33,
       -38.06
      ],
      [
       145.287,
       -38.062
      ],
      [
       145.283,
       -38.048
      ],
      [
       145.24,
       -38.047
      ],
      [
       145.215,
       -38.05
      ],
      [
       145.19,
       -38.045
      ],
      [
       145.19,
       -38.02
      ],
      [
       145.152,
       -38.022
      ],
      [
       145.152,
       -37.995
      ],
      [
       145.12,
       -37.95
      ],
      [
       145.12,
       -37.85
      ],
      [
       145.15,
       -37.8
      ]
     ]
    ]
   }
  },
  {
   "type": "Feature",
   "properties": {
    "status": "zone_4",
    "priority": 5,
    "part": "zone_4"
   },
   "geometry": {
    "type": "Polygon",
    "coordinates": [
     [
      [
       145.07,
       -37.99
      ],
      [
       145.17,
       -37.99
      ],
      [
       145.2,
       -38.03
      ],
      [
       145.285,
       -38.04
      ],
      [
       145.283,
       -38.048
      ],
      [
       145.278,
       -38.068
      ],
      [
       145.262,
       -38.075
      ],
      [
       145.255,
       -38.092
      ],
      [
       145.225,
       -38.095
      ],
      [
       145.228,
       -38.125
      ],
      [
       145.235,
       -38.135
      ],
      [
       145.235,
       -38.175
      ],
      [
       145.215,
       -38.195
      ],
      [
       145.195,
       -38.213
      ],
      [
       145.15,
       -38.215
      ],
      [
       145.13,
       -38.21
      ],
      [
       145.095,
       -38.215
      ],
      [
       145.085,
       -38.25
      ],
      [
       145.03,
       -38.252
      ],
      [
       144.99,
       -38.25
      ],
      [
       145.05,
       -38.1
      ],
      [
       145.04,
       -38.0
      ],
      [
       145.07,
       -37.99
      ]
     ]
    ]
   }
  },
  {
   "type": "Feature",
   "properties": {
    "status": "pre_arranged",
    "priority": 6,
    "part": "north-west and west"
   },
   "geometry": {
    "type": "Polygon",
    "coordinates": [
     [
      [
       144.985,
       -37.69
      ],
      [
       144.92,
       -37.688
      ],
      [
       144.9,
       -37.683
      ],
      [
       144.865,
       -37.68
      ],
      [
       144.83,
       -37.7
      ],
      [
       144.78,
       -37.69
      ],
      [
       144.72,
       -37.7
      ],
      [
       144.695,
       -37.74
      ],
      [
       144.7,
       -37.775
      ],
      [
       144.72,
       -37.79
      ],
      [
       144.76,
       -37.805
      ],
      [
       144.8,
       -37.815
      ],
      [
       144.83,
       -37.815
      ],
      [
       144.87,
       -37.815
      ],
      [
       144.88,
       -37.79
      ],
      [
       144.9,
       -37.75
      ],
      [
       144.94,
       -37.73
      ],
      [
       144.985,
       -37.73
      ],
      [
       144.985,
       -37.69
      ]
     ]
    ]
   }
  },
  {
   "type": "Feature",
   "properties": {
    "status": "pre_arranged",
    "priority": 6,
    "part": "Thomastown"
   },
   "geometry": {
    "type": "Polygon",
    "coordinates": [
     [
      [
       144.985,
       -37.695
      ],
      [
       144.99,
       -37.665
      ],
      [
       145.035,
       -37.662
      ],
      [
       145.042,
       -37.685
      ],
      [
       145.041,
       -37.702
      ],
      [
       145.0,
       -37.7
      ],
      [
       144.985,
       -37.695
      ]
     ]
    ]
   }
  },
  {
   "type": "Feature",
   "properties": {
    "status": "pre_arranged",
    "priority": 6,
    "part": "Eltham to Wonga Park"
   },
   "geometry": {
    "type": "Polygon",
    "coordinates": [
     [
      [
       145.12,
       -37.75
      ],
      [
       145.108,
       -37.728
      ],
      [
       145.107,
       -37.712
      ],
      [
       145.125,
       -37.705
      ],
      [
       145.14,
       -37.695
      ],
      [
       145.165,
       -37.69
      ],
      [
       145.185,
       -37.71
      ],
      [
       145.21,
       -37.72
      ],
      [
       145.25,
       -37.715
      ],
      [
       145.3,
       -37.715
      ],
      [
       145.305,
       -37.73
      ],
      [
       145.31,
       -37.75
      ],
      [
       145.3,
       -37.8
      ],
      [
       145.15,
       -37.8
      ],
      [
       145.12,
       -37.75
      ]
     ]
    ]
   }
  },
  {
   "type": "Feature",
   "properties": {
    "status": "pre_arranged",
    "priority": 6,
    "part": "Cranbourne to Pakenham"
   },
   "geometry": {
    "type": "Polygon",
    "coordinates": [
     [
      [
       145.35,
       -38.03
      ],
      [
       145.375,
       -38.03
      ],
      [
       145.4,
       -38.03
      ],
      [
       145.44,
       -38.035
      ],
      [
       145.5,
       -38.04
      ],
      [
       145.545,
       -38.045
      ],
      [
       145.545,
       -38.1
      ],
      [
       145.47,
       -38.105
      ],
      [
       145.385,
       -38.115
      ],
      [
       145.385,
       -38.165
      ],
      [
       145.32,
       -38.17
      ],
      [
       145.31,
       -38.14
      ],
      [
       145.26,
       -38.135
      ],
      [
       145.235,
       -38.135
      ],
      [
       145.21,
       -38.1
      ],
      [
       145.25,
       -38.06
      ],
      [
       145.3,
       -38.04
      ],
      [
       145.35,
       -38.03
      ]
     ]
    ]
   }
  },
  {
   "type": "Feature",
   "properties": {
    "status": "pre_arranged",
    "priority": 6,
    "part": "Mount Martha to Portsea"
   },
   "geometry": {
    "type": "Polygon",
    "coordinates": [
     [
      [
       145.0,
       -38.245
      ],
      [
       145.085,
       -38.245
      ],
      [
       145.07,
       -38.28
      ],
      [
       145.045,
       -38.31
      ],
      [
       145.0,
       -38.345
      ],
      [
       144.96,
       -38.36
      ],
      [
       144.92,
       -38.375
      ],
      [
       144.885,
       -38.39
      ],
      [
       144.86,
       -38.4
      ],
      [
       144.86,
       -38.46
      ],
      [
       144.7,
       -38.46
      ],
      [
       144.64,
       -38.33
      ],
      [
       144.645,
       -38.296
      ],
      [
       144.7,
       -38.3
      ],
      [
       144.88,
       -38.3
      ],
      [
       144.97,
       -38.28
      ],
      [
       145.0,
       -38.245
      ]
     ]
    ]
   }
  }
 ]
}